[{"CCSDS_CDM_VERS":"1.0","CREATION_DATE":"2025-01-22T22:19:04.252","ORIGINATOR":"CSpoc","MESSAGE_ID":"8313_conj393_1373","TCA":"2025-01-26T00:08:21.000","MISS_DISTANCE":"343","COLLISION_PROBABILITY":"1.9590000000000005e-24","SAT1_OBJECT":"OBJECT1","SAT1_OBJECT_DESIGNATOR":"39265","SAT1_CATALOG_NAME":"SATCAT","SAT1_OBJECT_NAME":"CASSIOPE","SAT1_INTERNATIONAL_DESIGNATOR":"2013-055A","SAT1_OBJECT_TYPE":"PAYLOAD","SAT1_OPERATOR_ORGANIZATION":"CSA","SAT1_COVARIANCE_METHOD":"CALCULATED","SAT1_MANEUVERABLE":"NO","SAT1_REFERENCE_FRAME":"ITRF","SAT1_X":"-3770.43311102877","SAT1_Y":"4413.533559390736","SAT1_Z":"-3744.9417817840103","SAT1_X_DOT":"1.7125308576639655","SAT1_Y_DOT":"-4.232173699700566","SAT1_Z_DOT":"-6.125413029295195","SAT1_CR_R":"7.224416","SAT1_CT_R":"24.52488","SAT1_CT_T":"5372.380999999999","SAT1_CN_R":"2.451529000000001","SAT1_CN_T":"42.119409999999995","SAT1_CN_N":"16.366300000000006","SAT1_CRDOT_R":"-0.014759119999999971","SAT1_CRDOT_T":"-4.807519999999994","SAT1_CRDOT_N":"-0.020092609999999976","SAT1_CRDOT_RDOT":"0.004488056999999989","SAT1_CTDOT_R":"-0.007598235999999948","SAT1_CTDOT_T":"-0.03236809999999976","SAT1_CTDOT_N":"-0.002541716999999983","SAT1_CTDOT_RDOT":"2.236369999999981e-05","SAT1_CTDOT_TDOT":"8.004533999999894e-06","SAT1_CNDOT_R":"0.004927024999999932","SAT1_CNDOT_T":"-0.09952068999999862","SAT1_CNDOT_N":"0.00898313099999988","SAT1_CNDOT_RDOT":"6.930762999999895e-05","SAT1_CNDOT_TDOT":"-5.170095999999894e-06","SAT1_CNDOT_NDOT":"4.437682999999879e-05","SAT2_OBJECT":"OBJECT1","SAT2_OBJECT_DESIGNATOR":"33773","SAT2_CATALOG_NAME":"SATCAT","SAT2_OBJECT_NAME":"IRIDIUM 33 DEB","SAT2_INTERNATIONAL_DESIGNATOR":"2021-030E","SAT2_OBJECT_TYPE":"DEBRIS","SAT2_EPHEMERIS_NAME":"NONE","SAT2_COVARIANCE_METHOD":"CALCULATED","SAT2_MANEUVERABLE":"NO","SAT2_REFERENCE_FRAME":"ITRF","SAT2_X":"-7540.80422205754","SAT2_Y":"8826.751518781472","SAT2_Z":"-7489.762563568021","SAT2_X_DOT":"3.449361715327931","SAT2_Y_DOT":"-6.529347399401132","SAT2_Z_DOT":"-7.269526058590389","SAT2_CR_R":"38.05809000000003","SAT2_CT_R":"-72.80847000000001","SAT2_CT_T":"3377.0969999999998","SAT2_CN_R":"-5.633725","SAT2_CN_T":"115.05899999999998","SAT2_CN_N":"36.689820000000005","SAT2_CRDOT_R":"0.04901202999999999","SAT2_CRDOT_T":"-3.195288999999999","SAT2_CRDOT_N":"-0.09294257999999996","SAT2_CRDOT_RDOT":"0.003091604999999997","SAT2_CTDOT_R":"-0.03997250999999986","SAT2_CTDOT_T":"0.06233730999999976","SAT2_CTDOT_N":"0.005567774999999979","SAT2_CTDOT_RDOT":"-3.7487289999999826e-05","SAT2_CTDOT_TDOT":"4.204863999999971e-05","SAT2_CNDOT_R":"0.46933898934910934","SAT2_CNDOT_T":"-0.0757356387824827","SAT2_CNDOT_N":"0.7004535882955347","SAT2_CNDOT_RDOT":"9.747438999999718e-07","SAT2_CNDOT_TDOT":"-7.929764999999925e-06","SAT2_CNDOT_NDOT":"3.833481999999959e-05","SAT2_OPERATOR_ORGANIZATION":"CSA"}]